ONEWEB-0589             
1 54655U 22166P   25299.97641619  .00000060  00000+0  11321-3 0  9998
2 54655  87.9168 290.5194 0001233  67.7112 292.4153 13.21827713140735
ONEWEB-0590             
1 54656U 22166Q   25299.92528018  .00000036  00000+0  54477-4 0  9994
2 54656  87.9166 290.5057 0002087  76.5395 283.5972 13.21823445140717
ONEWEB-0591             
1 54657U 22166R   25299.93694090  .00000109  00000+0  23331-3 0  9995
2 54657  87.9168 290.5271 0001834  84.9266 275.2077 13.21825107140741
ONEWEB-0592             
1 54658U 22166S   25299.94022864  .00000077  00000+0  15600-3 0  9995
2 54658  87.9178 290.4849 0001810  85.2838 274.8503 13.21823260140620
ONEWEB-0593             
1 54659U 22166T   25299.96324431  .00000009  00000+0 -92467-5 0  9997
2 54659  87.9168 290.5118 0001740  91.4091 268.7243 13.21826309140734
ONEWEB-0594             
1 54660U 22166U   25299.98302389  .00000134  00000+0  29256-3 0  9991
2 54660  87.9170 290.5255 0001919  89.6740 270.4614 13.21826147140753
ONEWEB-0595             
1 54661U 22166V   25299.95995528  .00000024  00000+0  25863-4 0  9991
2 54661  87.9166 290.5041 0002061  87.6332 272.5038 13.21824383140726
ONEWEB-0596             
1 54662U 22166W   25299.93365353  .00000114  00000+0  24490-3 0  9991
2 54662  87.9168 290.5254 0001937  86.0471 274.0884 13.21826227140728
